[
    {
    "OBJECT_NAME": "STARLINK-32380",
    "OBJECT_ID": "2024-164V",
    "EPOCH": "2024-09-29T22:00:00.999936",
    "MEAN_MOTION": 15.66652743,
    "ECCENTRICITY": 0.0001349,
    "INCLINATION": 53.16,
    "RA_OF_ASC_NODE": 24.1429,
    "ARG_OF_PERICENTER": 52.3079,
    "MEAN_ANOMALY": 57.068,
    "EPHEMERIS_TYPE": 0,
    "CLASSIFICATION_TYPE": "U",
    "NORAD_CAT_ID": 61069,
    "ELEMENT_SET_NO": 999,
    "REV_AT_EPOCH": 383,
    "BSTAR": -0.014424,
    "MEAN_MOTION_DOT": -0.01367904,
    "MEAN_MOTION_DDOT": 0
    },
    {
    "OBJECT_NAME": "STARLINK-32375",
    "OBJECT_ID": "2024-164W",
    "EPOCH": "2024-09-29T22:00:00.999936",
    "MEAN_MOTION": 15.6665231,
    "ECCENTRICITY": 0.0001404,
    "INCLINATION": 53.16,
    "RA_OF_ASC_NODE": 24.1469,
    "ARG_OF_PERICENTER": 55.7211,
    "MEAN_ANOMALY": 51.7384,
    "EPHEMERIS_TYPE": 0,
    "CLASSIFICATION_TYPE": "U",
    "NORAD_CAT_ID": 61070,
    "ELEMENT_SET_NO": 999,
    "REV_AT_EPOCH": 387,
    "BSTAR": -0.014415,
    "MEAN_MOTION_DOT": -0.01367154,
    "MEAN_MOTION_DDOT": 0
    },
    {
    "OBJECT_NAME": "QAEM 100 R/B",
    "OBJECT_ID": "2024-165A",
    "EPOCH": "2024-09-29T20:11:20.128416",
    "MEAN_MOTION": 15.0508521,
    "ECCENTRICITY": 0.0006646,
    "INCLINATION": 64.095,
    "RA_OF_ASC_NODE": 289.1118,
    "ARG_OF_PERICENTER": 251.029,
    "MEAN_ANOMALY": 109.0103,
    "EPHEMERIS_TYPE": 0,
    "CLASSIFICATION_TYPE": "U",
    "NORAD_CAT_ID": 61071,
    "ELEMENT_SET_NO": 999,
    "REV_AT_EPOCH": 234,
    "BSTAR": 0.00053711,
    "MEAN_MOTION_DOT": 0.00007503,
    "MEAN_MOTION_DDOT": 0
    },
    {
    "OBJECT_NAME": "CHAMRAN-1",
    "OBJECT_ID": "2024-165B",
    "EPOCH": "2024-09-30T02:22:03.703008",
    "MEAN_MOTION": 15.09183857,
    "ECCENTRICITY": 0.0020392,
    "INCLINATION": 64.0918,
    "RA_OF_ASC_NODE": 288.0584,
    "ARG_OF_PERICENTER": 301.1774,
    "MEAN_ANOMALY": 164.3483,
    "EPHEMERIS_TYPE": 0,
    "CLASSIFICATION_TYPE": "U",
    "NORAD_CAT_ID": 61072,
    "ELEMENT_SET_NO": 999,
    "REV_AT_EPOCH": 238,
    "BSTAR": 0.00079341,
    "MEAN_MOTION_DOT": 0.00012556,
    "MEAN_MOTION_DDOT": 0
    },
    {
    "OBJECT_NAME": "2024-166A",
    "OBJECT_ID": "2024-166A",
    "EPOCH": "2024-09-30T03:38:47.633280",
    "MEAN_MOTION": 15.79393372,
    "ECCENTRICITY": 0.0013526,
    "INCLINATION": 96.7673,
    "RA_OF_ASC_NODE": 169.3215,
    "ARG_OF_PERICENTER": 189.1504,
    "MEAN_ANOMALY": 170.952,
    "EPHEMERIS_TYPE": 0,
    "CLASSIFICATION_TYPE": "U",
    "NORAD_CAT_ID": 61179,
    "ELEMENT_SET_NO": 999,
    "REV_AT_EPOCH": 203,
    "BSTAR": 0.00039874,
    "MEAN_MOTION_DOT": 0.00072501,
    "MEAN_MOTION_DDOT": 0
    },
    {
    "OBJECT_NAME": "2024-166B",
    "OBJECT_ID": "2024-166B",
    "EPOCH": "2024-09-30T05:09:47.913696",
    "MEAN_MOTION": 15.79419949,
    "ECCENTRICITY": 0.001368,
    "INCLINATION": 96.7671,
    "RA_OF_ASC_NODE": 169.3836,
    "ARG_OF_PERICENTER": 188.5647,
    "MEAN_ANOMALY": 171.5391,
    "EPHEMERIS_TYPE": 0,
    "CLASSIFICATION_TYPE": "U",
    "NORAD_CAT_ID": 61180,
    "ELEMENT_SET_NO": 999,
    "REV_AT_EPOCH": 202,
    "BSTAR": 0.00039771,
    "MEAN_MOTION_DOT": 0.0007241,
    "MEAN_MOTION_DDOT": 0
    },
    {
    "OBJECT_NAME": "QAEM 100 DEB",
    "OBJECT_ID": "2024-165C",
    "EPOCH": "2024-09-29T09:47:24.066816",
    "MEAN_MOTION": 15.10325863,
    "ECCENTRICITY": 0.001083,
    "INCLINATION": 64.1221,
    "RA_OF_ASC_NODE": 290.2975,
    "ARG_OF_PERICENTER": 299.9838,
    "MEAN_ANOMALY": 60.0202,
    "EPHEMERIS_TYPE": 0,
    "CLASSIFICATION_TYPE": "U",
    "NORAD_CAT_ID": 61181,
    "ELEMENT_SET_NO": 999,
    "REV_AT_EPOCH": 199,
    "BSTAR": 0.0086006,
    "MEAN_MOTION_DOT": 0.00144562,
    "MEAN_MOTION_DDOT": 0
    },
    {
    "OBJECT_NAME": "2024-167A",
    "OBJECT_ID": "2024-167A",
    "EPOCH": "2024-09-25T21:36:00.000000",
    "MEAN_MOTION": 1.73084697,
    "ECCENTRICITY": 0.0013651,
    "INCLINATION": 55.405,
    "RA_OF_ASC_NODE": 238.595,
    "ARG_OF_PERICENTER": 273.632,
    "MEAN_ANOMALY": 132.663,
    "EPHEMERIS_TYPE": 0,
    "CLASSIFICATION_TYPE": "U",
    "NORAD_CAT_ID": 61182,
    "ELEMENT_SET_NO": 999,
    "REV_AT_EPOCH": 13,
    "BSTAR": 0,
    "MEAN_MOTION_DOT": 8e-8,
    "MEAN_MOTION_DDOT": 0
    },
    {
    "OBJECT_NAME": "2024-167B",
    "OBJECT_ID": "2024-167B",
    "EPOCH": "2024-09-29T07:28:13.232064",
    "MEAN_MOTION": 1.72615372,
    "ECCENTRICITY": 0.0009895,
    "INCLINATION": 55.414,
    "RA_OF_ASC_NODE": 238.5011,
    "ARG_OF_PERICENTER": 4.8754,
    "MEAN_ANOMALY": 355.0938,
    "EPHEMERIS_TYPE": 0,
    "CLASSIFICATION_TYPE": "U",
    "NORAD_CAT_ID": 61183,
    "ELEMENT_SET_NO": 999,
    "REV_AT_EPOCH": 18,
    "BSTAR": 0,
    "MEAN_MOTION_DOT": -1.1e-7,
    "MEAN_MOTION_DDOT": 0
    },
    {
    "OBJECT_NAME": "2024-167C",
    "OBJECT_ID": "2024-167C",
    "EPOCH": "2024-09-20T21:36:00.000000",
    "MEAN_MOTION": 1.72486994,
    "ECCENTRICITY": 0.001057,
    "INCLINATION": 55.41,
    "RA_OF_ASC_NODE": 238.734,
    "ARG_OF_PERICENTER": 328.754,
    "MEAN_ANOMALY": 202.932,
    "EPHEMERIS_TYPE": 0,
    "CLASSIFICATION_TYPE": "U",
    "NORAD_CAT_ID": 61184,
    "ELEMENT_SET_NO": 999,
    "REV_AT_EPOCH": 4,
    "BSTAR": 0,
    "MEAN_MOTION_DOT": 2.2e-7,
    "MEAN_MOTION_DDOT": 0
    },
    {
    "OBJECT_NAME": "2024-168A",
    "OBJECT_ID": "2024-168A",
    "EPOCH": "2024-09-29T18:10:19.897536",
    "MEAN_MOTION": 1.80096529,
    "ECCENTRICITY": 0.0079133,
    "INCLINATION": 54.9325,
    "RA_OF_ASC_NODE": 323.8534,
    "ARG_OF_PERICENTER": 294.2954,
    "MEAN_ANOMALY": 64.9505,
    "EPHEMERIS_TYPE": 0,
    "CLASSIFICATION_TYPE": "U",
    "NORAD_CAT_ID": 61185,
    "ELEMENT_SET_NO": 999,
    "REV_AT_EPOCH": 20,
    "BSTAR": 0,
    "MEAN_MOTION_DOT": -7.6e-7,
    "MEAN_MOTION_DDOT": 0
    },
    {
    "OBJECT_NAME": "2024-168B",
    "OBJECT_ID": "2024-168B",
    "EPOCH": "2024-09-29T17:16:12.290880",
    "MEAN_MOTION": 1.829692,
    "ECCENTRICITY": 0.011773,
    "INCLINATION": 54.9806,
    "RA_OF_ASC_NODE": 323.856,
    "ARG_OF_PERICENTER": 177.2025,
    "MEAN_ANOMALY": 267.2262,
    "EPHEMERIS_TYPE": 0,
    "CLASSIFICATION_TYPE": "U",
    "NORAD_CAT_ID": 61186,
    "ELEMENT_SET_NO": 999,
    "REV_AT_EPOCH": 19,
    "BSTAR": 0,
    "MEAN_MOTION_DOT": -7.5e-7,
    "MEAN_MOTION_DDOT": 0
    },
    {
    "OBJECT_NAME": "2024-168C",
    "OBJECT_ID": "2024-168C",
    "EPOCH": "2024-09-30T02:27:14.116608",
    "MEAN_MOTION": 1.84329798,
    "ECCENTRICITY": 0.0066551,
    "INCLINATION": 54.9907,
    "RA_OF_ASC_NODE": 323.8395,
    "ARG_OF_PERICENTER": 179.7119,
    "MEAN_ANOMALY": 175.6359,
    "EPHEMERIS_TYPE": 0,
    "CLASSIFICATION_TYPE": "U",
    "NORAD_CAT_ID": 61187,
    "ELEMENT_SET_NO": 999,
    "REV_AT_EPOCH": 19,
    "BSTAR": 0,
    "MEAN_MOTION_DOT": -7.4e-7,
    "MEAN_MOTION_DDOT": 0
    },
    {
    "OBJECT_NAME": "2024-168D",
    "OBJECT_ID": "2024-168D",
    "EPOCH": "2024-09-30T01:03:37.051776",
    "MEAN_MOTION": 4.43655462,
    "ECCENTRICITY": 0.581139,
    "INCLINATION": 55.0077,
    "RA_OF_ASC_NODE": 317.9612,
    "ARG_OF_PERICENTER": 173.6956,
    "MEAN_ANOMALY": 199.371,
    "EPHEMERIS_TYPE": 0,
    "CLASSIFICATION_TYPE": "U",
    "NORAD_CAT_ID": 61188,
    "ELEMENT_SET_NO": 999,
    "REV_AT_EPOCH": 47,
    "BSTAR": 0.001985,
    "MEAN_MOTION_DOT": 0.00156825,
    "MEAN_MOTION_DDOT": 4.9196e-7
    }
    ]
