STARLINK-32380          
1 61069U 24164V   24273.91667824 -.01367904  00000+0 -14424-1 0  9997
2 61069  53.1600  24.1429 0001349  52.3079  57.0680 15.66652743  3839
STARLINK-32375          
1 61070U 24164W   24273.91667824 -.01367154  00000+0 -14415-1 0  9996
2 61070  53.1600  24.1469 0001404  55.7211  51.7384 15.66652310  3878
QAEM 100 R/B            
1 61071U 24165A   24273.84120519  .00007503  00000+0  53711-3 0  9995
2 61071  64.0950 289.1118 0006646 251.0290 109.0103 15.05085210  2342
CHAMRAN-1               
1 61072U 24165B   24274.09865397  .00012556  00000+0  79341-3 0  9995
2 61072  64.0918 288.0584 0020392 301.1774 164.3483 15.09183857  2389
2024-166A               
1 61179U 24166A   24274.15194020  .00072501  00000+0  39874-3 0  9992
2 61179  96.7673 169.3215 0013526 189.1504 170.9520 15.79393372  2034
2024-166B               
1 61180U 24166B   24274.21513789  .00072410  00000+0  39771-3 0  9993
2 61180  96.7671 169.3836 0013680 188.5647 171.5391 15.79419949  2026
QAEM 100 DEB            
1 61181U 24165C   24273.40791744  .00144562  00000+0  86006-2 0  9992
2 61181  64.1221 290.2975 0010830 299.9838  60.0202 15.10325863  1992
2024-167A               
1 61182U 24167A   24269.90000000  .00000008  00000+0  00000+0 0  9996
2 61182  55.4050 238.5950 0013651 273.6320 132.6630  1.73084697   130
2024-167B               
1 61183U 24167B   24273.31126426 -.00000011  00000+0  00000+0 0  9993
2 61183  55.4140 238.5011 0009895   4.8754 355.0938  1.72615372   185
2024-167C               
1 61184U 24167C   24264.90000000  .00000022  00000+0  00000+0 0  9999
2 61184  55.4100 238.7340 0010570 328.7540 202.9320  1.72486994    48
2024-168A               
1 61185U 24168A   24273.75717474 -.00000076  00000+0  00000+0 0  9994
2 61185  54.9325 323.8534 0079133 294.2954  64.9505  1.80096529   208
2024-168B               
1 61186U 24168B   24273.71958670 -.00000075  00000+0  00000+0 0  9995
2 61186  54.9806 323.8560 0117730 177.2025 267.2262  1.82969200   190
2024-168C               
1 61187U 24168C   24274.10224672 -.00000074  00000+0  00000+0 0  9997
2 61187  54.9907 323.8395 0066551 179.7119 175.6359  1.84329798   197
2024-168D               
1 61188U 24168D   24274.04417884  .00156825  49196-6  19850-2 0  9997
2 61188  55.0077 317.9612 5811390 173.6956 199.3710  4.43655462   473
